IRIDIUM 171             
1 43929U 19002H   25001.52521897  .00000005  00000+0 -53440-5 0  9992
2 43929  86.3986 215.9700 0002024  98.8191 261.3234 14.34217512312756
IRIDIUM 170             
1 43930U 19002J   25001.65771581  .00003564  00000+0  56099-3 0  9998
2 43930  86.6096 215.6998 0002367  79.5951 280.5533 14.72261987321054
IRIDIUM 167             
1 43931U 19002K   25001.65841187  .00000879  00000+0  30684-3 0  9997
2 43931  86.3974 215.6850 0001783  99.0480 261.0917 14.34218869312777
IRIDIUM 181             
1 56726U 23068S   25001.62971283  .00001506  00000+0  43903-3 0  9994
2 56726  86.6868 278.4758 0002449  92.3331 267.8151 14.43583134 85763
IRIDIUM 177             
1 56727U 23068T   25001.56834554  .00004320  00000+0  56479-3 0  9996
2 56727  86.1967 221.1546 0001977  85.8279 274.3168 14.80241485 87722
IRIDIUM 174             
1 56728U 23068U   25001.69812007  .00004678  00000+0  61207-3 0  9991
2 56728  86.1973 221.2125 0002370  88.8432 271.3060 14.80229734 87749
IRIDIUM 178             
1 56729U 23068V   25002.09828866  .00008384  00000+0  10980-2 0  9996
2 56729  86.5768 247.8956 0002774  88.7313 271.4226 14.80271438 87807
IRIDIUM 179             
1 56730U 23068W   25002.09286753  .00011940  00000+0  15650-2 0  9992
2 56730  86.6781 254.5367 0002416  78.5975 281.5518 14.80258155 87807
